TDRS 3                  
1 19548U 88091B   23214.22618931 -.00000304  00000+0  00000+0 0  9993
2 19548  13.4087 348.2021 0032875 334.3602  20.4060  1.00266586114831
HST                     
1 20580U 90037B   23213.77475720  .00005065  00000+0  26435-3 0  9992
2 20580  28.4704 324.5937 0002767 142.6088 350.2618 15.13634091628639
TDRS 5                  
1 21639U 91054B   23214.43564737  .00000078  00000+0  00000+0 0  9994
2 21639  14.2000   1.4841 0024230   2.0738 296.6489  1.00275492117181
TDRS 6                  
1 22314U 93003B   23214.29515736 -.00000302  00000+0  00000+0 0  9991
2 22314  14.1514   4.7658 0012691 145.3006 220.9067  1.00268356111851
TDRS 7                  
1 23613U 95035B   23213.61253223 -.00000207  00000+0  00000+0 0  9990
2 23613  13.8147 355.5110 0028227  68.8170 191.0680  1.00273523102610
ISS (ZARYA)             
1 25544U 98067A   23214.68344063  .00018658  00000+0  33362-3 0  9993
2 25544  51.6413  98.1594 0000740 145.9323 307.5057 15.50042922409006
LANDSAT 7               
1 25682U 99020A   23214.39339244  .00000550  00000+0  12329-3 0  9991
2 25682  97.9267 250.7247 0001150  95.8103 321.7617 14.60172864292521
TERRA                   
1 25994U 99068A   23214.46788317  .00000590  00000+0  13459-3 0  9995
2 25994  98.0922 281.7055 0000508 305.2236  65.4959 14.59254290256533
TDRS 8                  
1 26388U 00034A   23213.82776771 -.00000264  00000+0  00000+0 0  9991
2 26388  11.0154  39.6593 0002870  35.7829 297.4795  1.01077263 84649
TIMED                   
1 26998U 01055B   23213.64046564  .00001675  00000+0  17801-3 0  9999
2 26998  74.0711 181.7928 0002745 283.7547  76.3329 14.89895928174203
TDRS 9                  
1 27389U 02011A   23213.53594718 -.00000092  00000+0  00000+0 0  9996
2 27389   9.9066  56.7564 0007132  79.1259 107.3124  0.98980300 79876
AQUA                    
1 27424U 02022A   23214.40838024  .00001099  00000+0  24821-3 0  9994
2 27424  98.2884 158.6704 0001990  64.4034  87.9262 14.58207418130098
TDRS 10                 
1 27566U 02055A   23213.69700954  .00000079  00000+0  00000+0 0  9993
2 27566   8.9574  47.5302 0006771   3.2164 339.1601  1.00266691 75690
SORCE                   
1 27651U 03004A   23213.82592816  .00003716  00000+0  37016-3 0  9996
2 27651  39.9942  82.6550 0018484 126.9969 233.2515 14.92282593114352
AURA                    
1 28376U 04026A   23213.83261271  .00001115  00000+0  25480-3 0  9998
2 28376  98.2114 156.8884 0001606  65.9963 294.1403 14.57614008 13030
SWIFT                   
1 28485U 04047A   23213.47157411  .00007905  00000+0  42507-3 0  9994
2 28485  20.5572 302.6863 0009942 115.1764 244.9703 15.11525149 25625
THEMIS A                
1 30580U 07004A   23213.49446069 -.00000257  00000+0 -56265-1 0  9990
2 30580  11.1886 296.3788 8324189 256.1989  37.1546  0.87833721 56737
THEMIS D                
1 30797U 07004D   23213.48928245 -.00000226  00000+0  00000+0 0  9999
2 30797   7.6375 284.6310 8282351 271.2833  22.2023  0.87834060 56250
THEMIS E                
1 30798U 07004E   23213.56313285 -.00000193  00000+0  00000+0 0  9994
2 30798   8.7611 303.8157 8285661 253.8334  63.5883  0.87831938 56677
AIM                     
1 31304U 07015A   23213.75434548  .00023332  00000+0  76293-3 0  9997
2 31304  97.8712 157.2633 0004763  57.9228 302.2474 15.31714609893657
FGRST (GLAST)           
1 33053U 08029A   23214.16799468  .00002962  00000+0  14103-3 0  9995
2 33053  25.5819 242.6751 0011011 266.3053  93.6223 15.14313507836194
WISE                    
1 36119U 09071A   23213.66920754  .00016583  00000+0  37126-3 0  9991
2 36119  97.1916 245.9807 0000757 161.7505 198.3771 15.43527105758553
TDRS 11                 
1 39070U 13004A   23213.69631222  .00000079  00000+0  00000+0 0  9993
2 39070   2.6992 359.7398 0005800  72.4434 314.3180  1.00278594 38456
TDRS 12                 
1 39504U 14004A   23213.93785199 -.00000271  00000+0  00000+0 0  9991
2 39504   3.6003 355.6856 0005878 166.3105  85.0135  1.00275258 34912
GPM-CORE                
1 39574U 14009C   23213.64274894  .00015130  00000+0  20960-3 0  9996
2 39574  64.9906 231.6209 0009749 268.5500  91.4530 15.57239205535444
MMS 1                   
1 40482U 15011A   23212.97445602 -.00002286  00000+0  00000+0 0  9990
2 40482  30.0576  55.5541 9170201 104.8918 358.4776  0.28536965 14466
MMS 2                   
1 40483U 15011B   23206.34073288 -.00001575  00000+0  00000+0 0  9992
2 40483  29.9220  56.5853 9170694 103.8754  36.0196  0.28578683 14424
MMS 3                   
1 40484U 15011C   23209.95769676 -.00001987  00000+0  00000+0 0  9993
2 40484  29.9929  55.9870 9166943 104.4811  47.8821  0.28592519 14436
MMS 4                   
1 40485U 15011D   23209.95793981 -.00001987  00000+0  00000+0 0  9990
2 40485  29.9977  56.0000 9168136 104.4826  47.9014  0.28598088 14431
TDRS 13                 
1 42915U 17047A   23213.72880701 -.00000100  00000+0  00000+0 0  9994
2 42915   3.9502 338.5756 0018876 123.0676  99.3496  1.00270817 21845
JPSS-1                  
1 43013U 17073A   23214.43105168  .00000099  00000+0  67469-4 0  9992
2 43013  98.7127 152.1718 0001183  61.9608 298.1687 14.19550353295536
